ATLAS CENTAUR 2         
1 00694U 63047A   26164.88792704  .00001304  00000+0  14423-3 0  9997
2 00694  30.3571  17.8440 0545973 208.4186 148.5586 14.12513268145231
THOR AGENA D R/B        
1 00733U 64002A   26164.80792282  .00000150  00000+0  70688-4 0  9990
2 00733  99.1155 183.3576 0032478 340.5720  19.4223 14.34064402252078
SL-3 R/B                
1 00877U 64053B   26164.83989100  .00000101  00000+0  43909-4 0  9997
2 00877  65.0775  49.3274 0081069 262.1580  97.0311 14.61425489280848
SL-8 R/B                
1 02802U 67045B   26164.76426557  .00000198  00000+0  62425-4 0  9995
2 02802  74.0094 168.6516 0063562 153.9353 206.5030 14.45680916102904
SL-8 R/B                
1 03230U 68040B   26164.85664332  .00002657  00000+0  19500-3 0  9999
2 03230  74.0299 117.1016 0025960 270.7925  89.0289 15.03801058104464
OAO 2                   
1 03597U 68110A   26164.46728146  .00000176  00000+0  52452-4 0  9992
2 03597  34.9936  90.4488 0006180 247.1967 112.8071 14.47350604 32980
ISIS 1                  
1 03669U 69009A   26164.65111725  .00000041  00000+0  31041-4 0  9992
2 03669  88.4426 144.7883 1706119 255.3714  85.2835 11.30433485359375
SERT 2                  
1 04327U 70009A   26164.79266594 -.00000019  00000+0  31078-4 0  9992
2 04327  99.2842 102.6880 0003982 284.1352 130.9435 13.58738920792946
SL-3 R/B                
1 05118U 71028B   26164.80397969  .00049918  00000+0  42139-3 0  9995
2 05118  81.2332 292.5748 0013848 292.7044  67.2750 15.69442775  3713
ASTEX 1                 
1 05560U 71089A   26164.76174693  .00000450  00000+0  11425-3 0  9997
2 05560  92.6998 182.7526 0017716 116.2932 244.0097 14.50849340876238
SL-8 R/B                
1 05730U 71119B   26164.82066566  .00003441  00000+0  17801-3 0  9993
2 05730  73.8874 355.7736 0543777 302.4169  52.5477 14.39487822669311
OAO 3 (COPERNICUS)      
1 06153U 72065A   26164.56380016  .00000258  00000+0  57251-4 0  9991
2 06153  35.0052 111.0501 0007160 228.2509 298.5671 14.60058466860218
ATLAS CENTAUR R/B       
1 06155U 72065B   26164.15696250  .00001043  00000+0  14466-3 0  9991
2 06155  35.0011 106.1686 0032787  94.2707 266.1741 14.77913609855397
