[
    {
        "OBJECT_NAME": "ATLAS CENTAUR 2",
        "OBJECT_ID": "1963-047A",
        "EPOCH": "2026-06-13T21:18:36.896256",
        "MEAN_MOTION": 14.12513268,
        "ECCENTRICITY": 0.0545973,
        "INCLINATION": 30.3571,
        "RA_OF_ASC_NODE": 17.844,
        "ARG_OF_PERICENTER": 208.4186,
        "MEAN_ANOMALY": 148.5586,
        "EPHEMERIS_TYPE": 0,
        "CLASSIFICATION_TYPE": "U",
        "NORAD_CAT_ID": 694,
        "ELEMENT_SET_NO": 999,
        "REV_AT_EPOCH": 14523,
        "BSTAR": 0.00014423,
        "MEAN_MOTION_DOT": 1.304e-05,
        "MEAN_MOTION_DDOT": 0
    },
    {
        "OBJECT_NAME": "THOR AGENA D R/B",
        "OBJECT_ID": "1964-002A",
        "EPOCH": "2026-06-13T19:23:24.531648",
        "MEAN_MOTION": 14.34064402,
        "ECCENTRICITY": 0.0032478,
        "INCLINATION": 99.1155,
        "RA_OF_ASC_NODE": 183.3576,
        "ARG_OF_PERICENTER": 340.572,
        "MEAN_ANOMALY": 19.4223,
        "EPHEMERIS_TYPE": 0,
        "CLASSIFICATION_TYPE": "U",
        "NORAD_CAT_ID": 733,
        "ELEMENT_SET_NO": 999,
        "REV_AT_EPOCH": 25207,
        "BSTAR": 7.0688e-05,
        "MEAN_MOTION_DOT": 1.5e-06,
        "MEAN_MOTION_DDOT": 0
    },
    {
        "OBJECT_NAME": "SL-3 R/B",
        "OBJECT_ID": "1964-053B",
        "EPOCH": "2026-06-13T20:09:26.582400",
        "MEAN_MOTION": 14.61425489,
        "ECCENTRICITY": 0.0081069,
        "INCLINATION": 65.0775,
        "RA_OF_ASC_NODE": 49.3274,
        "ARG_OF_PERICENTER": 262.158,
        "MEAN_ANOMALY": 97.0311,
        "EPHEMERIS_TYPE": 0,
        "CLASSIFICATION_TYPE": "U",
        "NORAD_CAT_ID": 877,
        "ELEMENT_SET_NO": 999,
        "REV_AT_EPOCH": 28084,
        "BSTAR": 4.3909e-05,
        "MEAN_MOTION_DOT": 1.01e-06,
        "MEAN_MOTION_DDOT": 0
    },
    {
        "OBJECT_NAME": "SL-8 R/B",
        "OBJECT_ID": "1967-045B",
        "EPOCH": "2026-06-13T18:20:32.545248",
        "MEAN_MOTION": 14.45680916,
        "ECCENTRICITY": 0.0063562,
        "INCLINATION": 74.0094,
        "RA_OF_ASC_NODE": 168.6516,
        "ARG_OF_PERICENTER": 153.9353,
        "MEAN_ANOMALY": 206.503,
        "EPHEMERIS_TYPE": 0,
        "CLASSIFICATION_TYPE": "U",
        "NORAD_CAT_ID": 2802,
        "ELEMENT_SET_NO": 999,
        "REV_AT_EPOCH": 10290,
        "BSTAR": 6.2425e-05,
        "MEAN_MOTION_DOT": 1.98e-06,
        "MEAN_MOTION_DDOT": 0
    },
    {
        "OBJECT_NAME": "SL-8 R/B",
        "OBJECT_ID": "1968-040B",
        "EPOCH": "2026-06-13T20:33:33.982848",
        "MEAN_MOTION": 15.03801058,
        "ECCENTRICITY": 0.002596,
        "INCLINATION": 74.0299,
        "RA_OF_ASC_NODE": 117.1016,
        "ARG_OF_PERICENTER": 270.7925,
        "MEAN_ANOMALY": 89.0289,
        "EPHEMERIS_TYPE": 0,
        "CLASSIFICATION_TYPE": "U",
        "NORAD_CAT_ID": 3230,
        "ELEMENT_SET_NO": 999,
        "REV_AT_EPOCH": 10446,
        "BSTAR": 0.000195,
        "MEAN_MOTION_DOT": 2.657e-05,
        "MEAN_MOTION_DDOT": 0
    },
    {
        "OBJECT_NAME": "OAO 2",
        "OBJECT_ID": "1968-110A",
        "EPOCH": "2026-06-13T11:12:53.118144",
        "MEAN_MOTION": 14.47350604,
        "ECCENTRICITY": 0.00061807,
        "INCLINATION": 34.9936,
        "RA_OF_ASC_NODE": 90.4488,
        "ARG_OF_PERICENTER": 247.1967,
        "MEAN_ANOMALY": 112.8071,
        "EPHEMERIS_TYPE": 0,
        "CLASSIFICATION_TYPE": "U",
        "NORAD_CAT_ID": 3597,
        "ELEMENT_SET_NO": 999,
        "REV_AT_EPOCH": 3298,
        "BSTAR": 5.2452158e-05,
        "MEAN_MOTION_DOT": 1.76e-06,
        "MEAN_MOTION_DDOT": 0
    },
    {
        "OBJECT_NAME": "ISIS 1",
        "OBJECT_ID": "1969-009A",
        "EPOCH": "2026-06-13T15:37:36.530400",
        "MEAN_MOTION": 11.30433485,
        "ECCENTRICITY": 0.1706119,
        "INCLINATION": 88.4426,
        "RA_OF_ASC_NODE": 144.7883,
        "ARG_OF_PERICENTER": 255.3714,
        "MEAN_ANOMALY": 85.2835,
        "EPHEMERIS_TYPE": 0,
        "CLASSIFICATION_TYPE": "U",
        "NORAD_CAT_ID": 3669,
        "ELEMENT_SET_NO": 999,
        "REV_AT_EPOCH": 35937,
        "BSTAR": 3.1041e-05,
        "MEAN_MOTION_DOT": 4.1e-07,
        "MEAN_MOTION_DDOT": 0
    },
    {
        "OBJECT_NAME": "SERT 2",
        "OBJECT_ID": "1970-009A",
        "EPOCH": "2026-06-13T19:01:26.337216",
        "MEAN_MOTION": 13.5873892,
        "ECCENTRICITY": 0.0003982,
        "INCLINATION": 99.2842,
        "RA_OF_ASC_NODE": 102.688,
        "ARG_OF_PERICENTER": 284.1352,
        "MEAN_ANOMALY": 130.9435,
        "EPHEMERIS_TYPE": 0,
        "CLASSIFICATION_TYPE": "U",
        "NORAD_CAT_ID": 4327,
        "ELEMENT_SET_NO": 999,
        "REV_AT_EPOCH": 79294,
        "BSTAR": 3.1078e-05,
        "MEAN_MOTION_DOT": -1.9e-07,
        "MEAN_MOTION_DDOT": 0
    },
    {
        "OBJECT_NAME": "SL-3 R/B",
        "OBJECT_ID": "1971-028B",
        "EPOCH": "2026-06-13T19:17:43.845216",
        "MEAN_MOTION": 15.69442775,
        "ECCENTRICITY": 0.0013848,
        "INCLINATION": 81.2332,
        "RA_OF_ASC_NODE": 292.5748,
        "ARG_OF_PERICENTER": 292.7044,
        "MEAN_ANOMALY": 67.275,
        "EPHEMERIS_TYPE": 0,
        "CLASSIFICATION_TYPE": "U",
        "NORAD_CAT_ID": 5118,
        "ELEMENT_SET_NO": 999,
        "REV_AT_EPOCH": 371,
        "BSTAR": 0.00042139,
        "MEAN_MOTION_DOT": 0.00049918,
        "MEAN_MOTION_DDOT": 0
    },
    {
        "OBJECT_NAME": "ASTEX 1",
        "OBJECT_ID": "1971-089A",
        "EPOCH": "2026-06-13T18:16:54.934752",
        "MEAN_MOTION": 14.5084934,
        "ECCENTRICITY": 0.0017716,
        "INCLINATION": 92.6998,
        "RA_OF_ASC_NODE": 182.7526,
        "ARG_OF_PERICENTER": 116.2932,
        "MEAN_ANOMALY": 244.0097,
        "EPHEMERIS_TYPE": 0,
        "CLASSIFICATION_TYPE": "U",
        "NORAD_CAT_ID": 5560,
        "ELEMENT_SET_NO": 999,
        "REV_AT_EPOCH": 87623,
        "BSTAR": 0.00011425,
        "MEAN_MOTION_DOT": 4.5e-06,
        "MEAN_MOTION_DDOT": 0
    },
    {
        "OBJECT_NAME": "SL-8 R/B",
        "OBJECT_ID": "1971-119B",
        "EPOCH": "2026-06-13T19:41:45.513024",
        "MEAN_MOTION": 14.39487822,
        "ECCENTRICITY": 0.0543777,
        "INCLINATION": 73.8874,
        "RA_OF_ASC_NODE": 355.7736,
        "ARG_OF_PERICENTER": 302.4169,
        "MEAN_ANOMALY": 52.5477,
        "EPHEMERIS_TYPE": 0,
        "CLASSIFICATION_TYPE": "U",
        "NORAD_CAT_ID": 5730,
        "ELEMENT_SET_NO": 999,
        "REV_AT_EPOCH": 66931,
        "BSTAR": 0.00017801,
        "MEAN_MOTION_DOT": 3.441e-05,
        "MEAN_MOTION_DDOT": 0
    },
    {
        "OBJECT_NAME": "OAO 3 (COPERNICUS)",
        "OBJECT_ID": "1972-065A",
        "EPOCH": "2026-06-13T13:31:52.333824",
        "MEAN_MOTION": 14.60058466,
        "ECCENTRICITY": 0.00071609,
        "INCLINATION": 35.0052,
        "RA_OF_ASC_NODE": 111.0501,
        "ARG_OF_PERICENTER": 228.2509,
        "MEAN_ANOMALY": 298.5671,
        "EPHEMERIS_TYPE": 0,
        "CLASSIFICATION_TYPE": "U",
        "NORAD_CAT_ID": 6153,
        "ELEMENT_SET_NO": 999,
        "REV_AT_EPOCH": 86021,
        "BSTAR": 5.7251461e-05,
        "MEAN_MOTION_DOT": 2.58e-06,
        "MEAN_MOTION_DDOT": 0
    },
    {
        "OBJECT_NAME": "ATLAS CENTAUR R/B",
        "OBJECT_ID": "1972-065B",
        "EPOCH": "2026-06-13T03:46:01.560000",
        "MEAN_MOTION": 14.77913609,
        "ECCENTRICITY": 0.00327878,
        "INCLINATION": 35.0011,
        "RA_OF_ASC_NODE": 106.1686,
        "ARG_OF_PERICENTER": 94.2707,
        "MEAN_ANOMALY": 266.1741,
        "EPHEMERIS_TYPE": 0,
        "CLASSIFICATION_TYPE": "U",
        "NORAD_CAT_ID": 6155,
        "ELEMENT_SET_NO": 999,
        "REV_AT_EPOCH": 85539,
        "BSTAR": 0.00014465523,
        "MEAN_MOTION_DOT": 1.043e-05,
        "MEAN_MOTION_DDOT": 0
    }
]